OBJECT B                
1 51825U 22019B   26050.95447241  .00045502  00000+0  57658-3 0  9993
2 51825  97.3563 137.6567 0007442 193.3483 166.7578 15.59314380221407
